[{"OBJECT_NAME":"STARLINK-31684","OBJECT_ID":"2024-071J","EPOCH":"2026-03-08T19:31:52.154976","MEAN_MOTION":15.27581574,"ECCENTRICITY":6.373e-5,"INCLINATION":42.998,"RA_OF_ASC_NODE":352.3031,"ARG_OF_PERICENTER":257.0512,"MEAN_ANOMALY":103.0268,"EPHEMERIS_TYPE":0,"CLASSIFICATION_TYPE":"U","NORAD_CAT_ID":59492,"ELEMENT_SET_NO":999,"REV_AT_EPOCH":10798,"BSTAR":-0.00013350334,"MEAN_MOTION_DOT":-3.934e-5,"MEAN_MOTION_DDOT":0},{"OBJECT_NAME":"CZ-3B R\/B","OBJECT_ID":"2015-037C","EPOCH":"2026-03-09T22:10:00.350688","MEAN_MOTION":13.12456199,"ECCENTRICITY":0.14168881,"INCLINATION":54.748,"RA_OF_ASC_NODE":105.1722,"ARG_OF_PERICENTER":341.4572,"MEAN_ANOMALY":13.933,"EPHEMERIS_TYPE":0,"CLASSIFICATION_TYPE":"U","NORAD_CAT_ID":40750,"ELEMENT_SET_NO":999,"REV_AT_EPOCH":20509,"BSTAR":0.00047355631,"MEAN_MOTION_DOT":0.02441896,"MEAN_MOTION_DDOT":5.846346e-6}]
